TYVAK-0173              
1 48892U 21059P   26187.71185121  .00001508  00000+0  19429-3 0  9999
2 48892  96.0078 259.2153 0007942 334.3133  25.7689 14.81953539271131
MANDRAKE 2 ABLE         
1 48907U 21059AE  26187.98923791  .00016663  00000+0  24258-3 0  9992
2 48907  97.7037  19.2949 0003509 274.1422  85.9430 15.55818938280200
MANDRAKE 2 BAKER        
1 48908U 21059AF  26188.50262764  .00020894  00000+0  25342-3 0  9994
2 48908  97.7002  22.8649 0002212 257.3907 102.7102 15.60658567280469
PACE-1                  
1 48909U 21059AG  26187.07230236  .00126204  00000+0  57119-3 0  9994
2 48909  97.6734  27.3937 0002866 201.5313 158.5836 15.83608652280781
YAM-3                   
1 48915U 21059AN  26187.77314767  .00010023  00000+0  18700-3 0  9994
2 48915  97.6998  16.0140 0003739 286.3013  73.7826 15.49009629280024
FARADAY_PHOENIX         
1 48924U 21059AX  26187.95963162  .00148959  00000+0  64139-3 0  9990
2 48924  97.6781  28.2753 0005244 222.1854 137.9012 15.84594264280789
DEMO8 (TENZING)         
1 48951U 21059CA  26187.99233349  .00015424  00000+0  22487-3 0  9991
2 48951  97.7022  22.9295 0005334 268.1981  91.8662 15.55788133280384
FENGYUN 3E              
1 49008U 21062A   26188.56662755  .00000231  00000+0  12944-3 0  9997
2 49008  98.7500 191.7475 0002538  51.9379 308.2026 14.19906459259474
ISS (NAUKA)             
1 49044U 21066A   26188.50835634  .00005806  00000+0  11369-3 0  9996
2 49044  51.6304 199.5144 0006687 267.6545  92.3678 15.48933372609664
STARLINK-3100           
1 49144U 21082Q   26188.40207001  .00000304  00000+0  33242-4 0  9998
2 49144  70.0001 352.6093 0003120 269.5207  90.5594 14.98327620263912
CUTE                    
1 49263U 21088D   26188.23006743  .00505644  12215-3  75030-3 0  9999
2 49263  97.4041 289.5988 0001469 300.4812  59.6324 16.04923388265756
2021-091B               
1 49316U 21091B   26188.61830419  .00002091  00000+0  10403-3 0  9995
2 49316  97.4479  15.8831 0012594 336.7709  23.2955 15.18657244262084
SDGSAT 1                
1 49387U 21100A   26188.64949475  .00002655  00000+0  12912-3 0  9993
2 49387  97.2621 234.8168 0008992 189.3334 170.7736 15.19216569259025
TEIKYOSAT-4 (OORURI)    
1 49396U 21102B   26188.13941579  .00001329  00000+0  86469-4 0  9992
2 49396  97.3664 216.8471 0010938 217.3603 142.6867 15.09581551255736
Z-SAT                   
1 49399U 21102E   26188.62813574  .00003971  00000+0  19546-3 0  9998
2 49399  97.3318 223.3309 0016879 170.0587 190.0985 15.18427149256544
HIBARI                  
1 49400U 21102F   26187.66724211  .00009449  00000+0  30604-3 0  9997
2 49400  97.3226 233.3519 0013126 127.6462 232.5973 15.32149897257177
KOSEN-1                 
1 49402U 21102H   26188.06319665  .00006147  00000+0  23304-3 0  9998
2 49402  97.3175 229.8359 0015082 133.3577 226.8921 15.27132913257059
GLOBAL-14               
1 49469U 21106A   26188.43353364  .00017016  00000+0  28316-3 0  9995
2 49469  42.0026 170.6699 0016257 170.8772 189.2370 15.51549920261278
GAOFEN-3 02             
1 49495U 21109A   26188.58475896  .00000006  00000+0  14942-4 0  9990
2 49495  98.4093 196.3917 0001556 310.0721  50.0332 14.42219597243256
GLOBAL-12               
1 49772U 21115BA  26188.32942991  .00027653  00000+0  41160-3 0  9990
2 49772  53.1957 307.6011 0002603  70.1313 289.9979 15.54947504259031
GLOBAL-13               
1 49773U 21115BB  26188.34845026  .00014819  00000+0  29786-3 0  9994
2 49773  53.1980 318.6912 0001537 149.5926 210.5172 15.46890739258881
GLOBAL-17               
1 49949U 21120A   26188.54211174  .00021412  00000+0  33219-3 0  9991
2 49949  41.9950 287.9070 0013965  32.2181 327.9515 15.53413015258060
GLOBAL-16               
1 49950U 21120B   26188.58359752  .00017787  00000+0  29997-3 0  9990
2 49950  41.9954 291.7817 0012253  21.8667 338.2698 15.51213782258019
XW-3 (CAS-9)            
1 50466U 21131B   26188.60255579  .00000586  00000+0  19467-3 0  9991
2 50466  98.4982 280.8827 0004984  49.7875 310.3749 14.41378352238056
ION SCV-004             
1 50993U 22002K   26188.24047416  .00003885  00000+0  13361-3 0  9995
2 50993  97.2819 245.5235 0005542 284.2215  75.8410 15.30655713248364
ETV-A1                  
1 51060U 22002CE  26188.59973534  .00007610  00000+0  18585-3 0  9991
2 51060  97.2865 254.8507 0003432 263.6097  96.4759 15.41122531248983
BRO-5                   
1 51061U 22002CF  26188.61411476  .00021138  00000+0  39775-3 0  9992
2 51061  97.2983 262.4785 0004634 232.5161 127.5669 15.48560451249419
LUDI TANCE 1-01A (L-SA*)
1 51284U 22007A   26188.61812546  .00000497  00000+0  59466-4 0  9992
2 51284  97.8102 195.7476 0001623  90.2807 269.8595 14.88413368241519
LUDI TANCE 1-01B (L-SA*)
1 51822U 22018A   26187.44162545  .00000578  00000+0  68229-4 0  9996
2 51822  97.8106 194.5856 0001607  91.5780 268.5621 14.88422741236577
